NORAD_CAT_ID,OBJECT_NAME,OBJECT_TYPE,EPOCH,MEAN_MOTION,ECCENTRICITY,INCLINATION,RA_OF_ASC_NODE,ARG_OF_PERICENTER,MEAN_ANOMALY,BSTAR,MEAN_MOTION_DOT,MEAN_MOTION_DDOT,TLE_LINE0,TLE_LINE1,TLE_LINE2,SEMIMAJOR_AXIS,PERIOD,APOGEE,PERIGEE,DECAYED
52693.0,STARLINK-3946,PAYLOAD,2024-02-24 11:54:13,15.0884028,9.66e-05,53.2172,244.935,106.8718,253.2381,2.7074e-05,1.43e-06,0.0,0 STARLINK-3946,1 52693U 22053AP  24055.49598404  .00000143  00000-0  27074-4 0  9998,2 52693  53.2172 244.9350 0000966 106.8718 253.2381 15.08840280 98407,6917.88,95.438,540.413,539.076,0.0
52693.0,STARLINK-3946,PAYLOAD,2024-02-24 21:26:31,15.08845468,9.86e-05,53.217,243.1513,109.876,250.2338,6.006e-05,6.68e-06,0.0,0 STARLINK-3946,1 52693U 22053AP  24055.89341949  .00000668  00000-0  60060-4 0  9996,2 52693  53.2170 243.1513 0000986 109.8760 250.2338 15.08845468 98861,6917.864,95.437,540.411,539.047,0.0
52693.0,STARLINK-3946,PAYLOAD,2024-02-25 05:23:27,15.08841928,8.24e-05,53.2162,241.6637,91.9117,268.1969,6.823e-05,7.98e-06,0.0,0 STARLINK-3946,1 52693U 22053AP  24056.22462127  .00000798  00000-0  68230-4 0  9997,2 52693  53.2162 241.6637 0000824  91.9117 268.1969 15.08841928 98911,6917.874,95.437,540.31,539.169,0.0
52693.0,STARLINK-3946,PAYLOAD,2024-02-25 19:41:55,15.08843727,8.39e-05,53.2164,238.9871,92.6814,267.4274,0.00015172,2.128e-05,0.0,0 STARLINK-3946,1 52693U 22053AP  24056.82077944  .00002128  00000-0  15172-3 0  9997,2 52693  53.2164 238.9871 0000839  92.6814 267.4274 15.08843727 98606,6917.869,95.437,540.314,539.154,0.0
52693.0,STARLINK-3946,PAYLOAD,2024-02-25 21:17:18,15.08844179,7.97e-05,53.2157,238.6891,90.4877,269.6207,0.00015507,2.181e-05,0.0,0 STARLINK-3946,1 52693U 22053AP  24056.88701934  .00002181  00000-0  15507-3 0  9997,2 52693  53.2157 238.6891 0000797  90.4877 269.6207 15.08844179 99013,6917.868,95.437,540.284,539.181,0.0
52693.0,STARLINK-3946,PAYLOAD,2024-02-26 11:35:47,15.08837925,0.0001056,53.2159,236.0138,77.1089,283.0021,2.0034e-05,3.1e-07,0.0,0 STARLINK-3946,1 52693U 22053AP  24057.48318946  .00000031  00000-0  20034-4 0  9995,2 52693  53.2159 236.0138 0001056  77.1089 283.0021 15.08837925 98707,6917.887,95.438,540.482,539.021,0.0
52693.0,STARLINK-3946,PAYLOAD,2024-02-26 19:32:43,15.08836824,0.0001026,53.2168,234.527,76.4136,283.697,1.3359e-06,-2.66e-06,0.0,0 STARLINK-3946,1 52693U 22053AP  24057.81439147 -.00000266  00000-0  13359-5 0  9993,2 52693  53.2168 234.5270 0001026  76.4136 283.6970 15.08836824 99155,6917.89,95.438,540.465,539.045,0.0
52693.0,STARLINK-3946,PAYLOAD,2024-02-27 11:26:34,15.08840124,9.26e-05,53.2169,231.5518,79.1813,280.9283,4.603e-05,4.45e-06,0.0,0 STARLINK-3946,1 52693U 22053AP  24058.47678868  .00000445  00000-0  46030-4 0  9990,2 52693  53.2169 231.5518 0000926  79.1813 280.9283 15.08840124 99254,6917.88,95.438,540.386,539.104,0.0
52693.0,STARLINK-3946,PAYLOAD,2024-02-27 17:48:06,15.08845076,8.91e-05,53.2171,230.3633,78.1325,281.9767,6.2861e-05,7.13e-06,0.0,0 STARLINK-3946,1 52693U 22053AP  24058.74174467  .00000713  00000-0  62861-4 0  9994,2 52693  53.2171 230.3633 0000891  78.1325 281.9767 15.08845076 98898,6917.865,95.437,540.346,539.113,0.0
52693.0,STARLINK-3946,PAYLOAD,2024-02-28 11:17:21,15.08839828,9.49e-05,53.217,227.0929,72.2347,287.8749,0.00014178,1.969e-05,0.0,0 STARLINK-3946,1 52693U 22053AP  24059.47038735  .00001969  00000-0  14178-3 0  9993,2 52693  53.2170 227.0929 0000949  72.2347 287.8749 15.08839828 99008,6917.881,95.438,540.402,539.089,0.0
52693.0,STARLINK-3946,PAYLOAD,2024-02-28 14:28:07,15.08840455,9.52e-05,53.2169,226.4983,71.5376,288.572,0.00014455,2.014e-05,0.0,0 STARLINK-3946,1 52693U 22053AP  24059.60286691  .00002014  00000-0  14455-3 0  9994,2 52693  53.2169 226.4983 0000952  71.5376 288.5720 15.08840455 99428,6917.879,95.438,540.403,539.085,0.0
52693.0,STARLINK-3946,PAYLOAD,2024-02-28 16:03:30,15.08841192,9.56e-05,53.217,226.2009,71.7063,288.4033,0.000151,2.116e-05,0.0,0 STARLINK-3946,1 52693U 22053AP  24059.66910658  .00002116  00000-0  15100-3 0  9998,2 52693  53.2170 226.2009 0000956  71.7063 288.4033 15.08841192 99432,6917.877,95.437,540.403,539.08,0.0
52693.0,STARLINK-3946,PAYLOAD,2024-02-29 11:08:08,15.08838326,9.89e-05,53.2171,222.6319,75.8391,284.2711,2.2061e-05,6.3e-07,0.0,0 STARLINK-3946,1 52693U 22053AP  24060.46399260  .00000063  00000-0  22061-4 0  9992,2 52693  53.2171 222.6319 0000989  75.8391 284.2711 15.08838326 99153,6917.886,95.438,540.435,539.066,0.0
52693.0,STARLINK-3946,PAYLOAD,2024-02-29 14:18:55,15.08837813,9.88e-05,53.2171,222.0372,75.2588,284.8513,9.6956e-06,-1.33e-06,0.0,0 STARLINK-3946,1 52693U 22053AP  24060.59647265 -.00000133  00000-0  96956-5 0  9991,2 52693  53.2171 222.0372 0000988  75.2588 284.8513 15.08837813 99579,6917.887,95.438,540.436,539.069,0.0
52693.0,STARLINK-3946,PAYLOAD,2024-02-29 20:40:27,15.08841133,8.98e-05,53.2162,220.8456,71.4507,288.6583,7.4653e-06,-1.69e-06,0.0,0 STARLINK-3946,1 52693U 22053AP  24060.86142959 -.00000169  00000-0  74653-5 0  9990,2 52693  53.2162 220.8456 0000898  71.4507 288.6583 15.08841133 99611,6917.877,95.437,540.363,539.121,0.0
52693.0,STARLINK-3946,PAYLOAD,2024-03-01 14:09:39,15.08867084,0.000172,53.217,217.576,135.4699,224.6432,0.00024793,3.663e-05,0.0,0 STARLINK-3946,1 52693U 22053AP  24061.59004432  .00003663  00000-0  24793-3 0  9993,2 52693  53.2170 217.5760 0001720 135.4699 224.6432 15.08867084 99727,6917.798,95.436,540.852,538.473,0.0
52693.0,STARLINK-3946,PAYLOAD,2024-03-01 17:20:26,15.08867437,8.27e-05,53.2166,216.9816,70.1624,289.9457,0.0002509,3.711e-05,0.0,0 STARLINK-3946,1 52693U 22053AP  24061.72252397  .00003711  00000-0  25090-3 0  9998,2 52693  53.2166 216.9816 0000827  70.1624 289.9457 15.08867437 99348,6917.797,95.436,540.234,539.089,0.0
52693.0,STARLINK-3946,PAYLOAD,2024-03-02 14:00:29,15.08834111,7.19e-05,53.2173,213.1136,81.944,278.1634,2.5327e-05,1.15e-06,0.0,0 STARLINK-3946,1 52693U 22053AP  24062.58367199  .00000115  00000-0  25327-4 0  9999,2 52693  53.2173 213.1136 0000719  81.9440 278.1634 15.08834111 99874,6917.898,95.438,540.261,539.266,0.0
52693.0,STARLINK-3946,PAYLOAD,2024-03-02 17:11:15,15.08831978,7.38e-05,53.2173,212.5189,82.2915,277.8161,4.5419e-06,-2.15e-06,0.0,0 STARLINK-3946,1 52693U 22053AP  24062.71615422 -.00000215  00000-0  45419-5 0  9996,2 52693  53.2173 212.5189 0000738  82.2915 277.8161 15.08831978 99494,6917.905,95.438,540.28,539.259,0.0
52693.0,STARLINK-3946,PAYLOAD,2024-03-03 13:51:16,15.08838038,0.0001446,53.2179,208.6545,85.8829,274.2328,-0.00011444,-2.109e-05,0.0,0 STARLINK-3946,1 52693U 22053AP  24063.57727959 -.00002109  00000-0 -11444-3 0  9994,2 52693  53.2179 208.6545 0001446  85.8829 274.2328 15.08838038100024,6917.886,95.438,540.752,538.751,0.0
52693.0,STARLINK-3946,PAYLOAD,2024-03-03 18:37:25,15.08849247,8.3e-05,53.2183,207.7636,81.0176,279.091,-0.00012403,-2.262e-05,0.0,0 STARLINK-3946,1 52693U 22053AP  24063.77599084 -.00002262  00000-0 -12403-3 0  9998,2 52693  53.2183 207.7636 0000830  81.0176 279.0910 15.08849247 99659,6917.852,95.437,540.291,539.143,0.0
52693.0,STARLINK-3946,PAYLOAD,2024-03-04 13:42:01,15.08852375,7.04e-05,53.2179,204.1979,97.3614,262.7459,0.00025343,3.749e-05,0.0,0 STARLINK-3946,1 52693U 22053AP  24064.57085532  .00003749  00000-0  25343-3 0  9991,2 52693  53.2179 204.1979 0000704  97.3614 262.7459 15.08852375100175,6917.843,95.437,540.195,539.221,0.0
52693.0,STARLINK-3946,PAYLOAD,2024-03-04 16:52:48,15.08853534,0.0001122,53.2183,203.5982,56.1826,303.9273,0.00027791,4.139e-05,0.0,0 STARLINK-3946,1 52693U 22053AP  24064.70333576  .00004139  00000-0  27791-3 0  9993,2 52693  53.2183 203.5982 0001122  56.1826 303.9273 15.08853534 99795,6917.839,95.437,540.48,538.928,0.0
52693.0,STARLINK-3946,PAYLOAD,2024-03-05 13:32:51,15.08830457,7.28e-05,53.2179,199.7349,80.2183,279.8891,8.073e-05,9.97e-06,0.0,0 STARLINK-3946,1 52693U 22053AP  24065.56447964  .00000997  00000-0  80730-4 0  9996,2 52693  53.2179 199.7349 0000728  80.2183 279.8891 15.08830457100326,6917.91,95.438,540.278,539.271,0.0
52693.0,STARLINK-3946,PAYLOAD,2024-03-05 15:08:13,15.08835023,5.48e-05,53.2155,199.4384,108.9184,251.1867,-7.7754e-05,-1.525e-05,0.0,0 STARLINK-3946,1 52693U 22053AP  24065.63071253 -.00001525  00000-0 -77754-4 0  9990,2 52693  53.2155 199.4384 0000548 108.9184 251.1867 15.08835023 99939,6917.896,95.438,540.14,539.382,0.0
52693.0,STARLINK-3946,PAYLOAD,2024-03-06 11:48:13,15.08847845,7.86e-05,53.2168,195.5676,109.2329,250.8748,-5.467e-05,-1.158e-05,0.0,0 STARLINK-3946,1 52693U 22053AP  24066.49182734 -.00001158  00000-0 -54670-4 0  9996,2 52693  53.2168 195.5676 0000786 109.2329 250.8748 15.08847845100069,6917.856,95.437,540.265,539.178,0.0
52693.0,STARLINK-3946,PAYLOAD,2024-03-06 13:23:37,15.08845817,8.34e-05,53.2168,195.2703,111.9031,248.205,0.0001379,1.908e-05,0.0,0 STARLINK-3946,1 52693U 22053AP  24066.55806896  .00001908  00000-0  13790-3 0  9993,2 52693  53.2168 195.2703 0000834 111.9031 248.2050 15.08845817100470,6917.863,95.437,540.305,539.151,0.0
52693.0,STARLINK-3946,PAYLOAD,2024-03-07 14:49:48,15.08838225,5.32e-05,53.2149,190.5172,86.777,273.3283,0.00020479,2.973e-05,0.0,0 STARLINK-3946,1 52693U 22053AP  24067.61791798  .00002973  00000-0  20479-3 0  9990,2 52693  53.2149 190.5172 0000532  86.7770 273.3283 15.08838225100631,6917.886,95.438,540.119,539.383,0.0
52693.0,STARLINK-3946,PAYLOAD,2024-03-08 14:40:35,15.08843583,7.3e-05,53.216,186.059,99.5039,260.6036,6.1329e-05,6.89e-06,0.0,0 STARLINK-3946,1 52693U 22053AP  24068.61151761  .00000689  00000-0  61329-4 0  9993,2 52693  53.2160 186.0590 0000730  99.5039 260.6036 15.08843583100782,6917.869,95.437,540.239,539.229,0.0
52693.0,STARLINK-3946,PAYLOAD,2024-03-09 11:20:36,15.08837633,0.0001302,53.2161,182.1876,122.6231,237.4887,0.00013817,1.912e-05,0.0,0 STARLINK-3946,1 52693U 22053AP  24069.47264021  .00001912  00000-0  13817-3 0  9990,2 52693  53.2161 182.1876 0001302 122.6231 237.4887 15.08837633100511,6917.888,95.438,540.653,538.852,0.0
